{"type": "FeatureCollection", "features": [ {"type": "Feature", "properties": {"norad_id": 66485, "name": "STARLINK-34774", "group": "last-30-days", "lat": 40.29446216470807, "lon": -160.76509656711883, "alt_km": 439.32174354765084, "timestamp": "2025-12-11T07:02:22.476762+00:00", "meta": {"OBJECT_NAME": "STARLINK-34774", "OBJECT_ID": "2025-263A", "EPOCH": "2025-12-10T22:00:03.000096", "MEAN_MOTION": 15.40963533, "ECCENTRICITY": 0.00022499, "INCLINATION": 43.0008, "RA_OF_ASC_NODE": 135.9177, "ARG_OF_PERICENTER": 275.4382, "MEAN_ANOMALY": 224.6246, "EPHEMERIS_TYPE": 0, "CLASSIFICATION_TYPE": "U", "NORAD_CAT_ID": 66485, "ELEMENT_SET_NO": 999, "REV_AT_EPOCH": 534, "BSTAR": -0.011025938, "MEAN_MOTION_DOT": -0.00439249, "MEAN_MOTION_DDOT": 0}, "tle": {"line1": "1 66485U 25263A   25344.91670139 -.00439249  00000+0 -11026-1 0  9994", "line2": "2 66485  43.0008 135.9177 0002249 275.4382 224.6246 15.40963533  5344"}}, "geometry": {"type": "Point", "coordinates": [-160.76509656711883, 40.29446216470807]}}, {"type": "Feature", "properties": {"norad_id": 66486, "name": "STARLINK-34844", "group": "last-30-days", "lat": 36.112123024058185, "lon": -97.89722218083267, "alt_km": 410.2549852158154, "timestamp": "2025-12-11T07:02:22.476773+00:00", "meta": {"OBJECT_NAME": "STARLINK-34844", "OBJECT_ID": "2025-263B", "EPOCH": "2025-12-10T22:00:03.000096", "MEAN_MOTION": 15.50591618, "ECCENTRICITY": 0.00014836, "INCLINATION": 43.0006, "RA_OF_ASC_NODE": 135.8308, "ARG_OF_PERICENTER": 270.7768, "MEAN_ANOMALY": 264.5609, "EPHEMERIS_TYPE": 0, "CLASSIFICATION_TYPE": "U", "NORAD_CAT_ID": 66486, "ELEMENT_SET_NO": 999, "REV_AT_EPOCH": 529, "BSTAR": -0.00084968115, "MEAN_MOTION_DOT": -0.00049894, "MEAN_MOTION_DDOT": 0}, "tle": {"line1": "1 66486U 25263B   25344.91670139 -.00049894  00000+0 -84968-3 0  9995", "line2": "2 66486  43.0006 135.8308 0001483 270.7768 264.5609 15.50591618  5295"}}, "geometry": {"type": "Point", "coordinates": [-97.89722218083267, 36.112123024058185]}}, {"type": "Feature", "properties": {"norad_id": 66487, "name": "STARLINK-34733", "group": "last-30-days", "lat": 35.310700780888574, "lon": -95.85027107573225, "alt_km": 411.1722374036035, "timestamp": "2025-12-11T07:02:22.476783+00:00", "meta": {"OBJECT_NAME": "STARLINK-34733", "OBJECT_ID": "2025-263C", "EPOCH": "2025-12-10T22:00:03.000096", "MEAN_MOTION": 15.50768653, "ECCENTRICITY": 0.00015446, "INCLINATION": 43.0006, "RA_OF_ASC_NODE": 135.8267, "ARG_OF_PERICENTER": 271.7838, "MEAN_ANOMALY": 265.44, "EPHEMERIS_TYPE": 0, "CLASSIFICATION_TYPE": "U", "NORAD_CAT_ID": 66487, "ELEMENT_SET_NO": 999, "REV_AT_EPOCH": 534, "BSTAR": -0.010172046, "MEAN_MOTION_DOT": -0.00560056, "MEAN_MOTION_DDOT": 0}, "tle": {"line1": "1 66487U 25263C   25344.91670139 -.00560056  00000+0 -10172-1 0  9998", "line2": "2 66487  43.0006 135.8267 0001544 271.7838 265.4400 15.50768653  5347"}}, "geometry": {"type": "Point", "coordinates": [-95.85027107573225, 35.310700780888574]}}, {"type": "Feature", "properties": {"norad_id": 66488, "name": "STARLINK-35515", "group": "last-30-days", "lat": 34.40828158920931, "lon": -93.68866957569, "alt_km": 410.5171643628464, "timestamp": "2025-12-11T07:02:22.476796+00:00", "meta": {"OBJECT_NAME": "STARLINK-35515", "OBJECT_ID": "2025-263D", "EPOCH": "2025-12-10T22:00:03.000096", "MEAN_MOTION": 15.50613371, "ECCENTRICITY": 0.00015014, "INCLINATION": 43.0006, "RA_OF_ASC_NODE": 135.8223, "ARG_OF_PERICENTER": 268.9385, "MEAN_ANOMALY": 270.2283, "EPHEMERIS_TYPE": 0, "CLASSIFICATION_TYPE": "U", "NORAD_CAT_ID": 66488, "ELEMENT_SET_NO": 999, "REV_AT_EPOCH": 534, "BSTAR": -0.0015285818, "MEAN_MOTION_DOT": -0.00089112, "MEAN_MOTION_DDOT": 0}, "tle": {"line1": "1 66488U 25263D   25344.91670139 -.00089112  00000+0 -15286-2 0  9990", "line2": "2 66488  43.0006 135.8223 0001501 268.9385 270.2283 15.50613371  5347"}}, "geometry": {"type": "Point", "coordinates": [-93.68866957569, 34.40828158920931]}}, {"type": "Feature", "properties": {"norad_id": 66489, "name": "STARLINK-35696", "group": "last-30-days", "lat": 33.503916014945574, "lon": -91.6522513523867, "alt_km": 410.635084516025, "timestamp": "2025-12-11T07:02:22.476808+00:00", "meta": {"OBJECT_NAME": "STARLINK-35696", "OBJECT_ID": "2025-263E", "EPOCH": "2025-12-10T22:00:03.000096", "MEAN_MOTION": 15.50604881, "ECCENTRICITY": 0.00014483, "INCLINATION": 43.0006, "RA_OF_ASC_NODE": 135.8173, "ARG_OF_PERICENTER": 270.9474, "MEAN_ANOMALY": 270.1429, "EPHEMERIS_TYPE": 0, "CLASSIFICATION_TYPE": "U", "NORAD_CAT_ID": 66489, "ELEMENT_SET_NO": 999, "REV_AT_EPOCH": 534, "BSTAR": -0.0013629485, "MEAN_MOTION_DOT": -0.00079565, "MEAN_MOTION_DDOT": 0}, "tle": {"line1": "1 66489U 25263E   25344.91670139 -.00079565  00000+0 -13629-2 0  9991", "line2": "2 66489  43.0006 135.8173 0001448 270.9474 270.1429 15.50604881  5341"}}, "geometry": {"type": "Point", "coordinates": [-91.6522513523867, 33.503916014945574]}}, {"type": "Feature", "properties": {"norad_id": 66490, "name": "STARLINK-35693", "group": "last-30-days", "lat": 38.31079172303551, "lon": -104.33437609877448, "alt_km": 426.9069407429288, "timestamp": "2025-12-11T07:02:22.476820+00:00", "meta": {"OBJECT_NAME": "STARLINK-35693", "OBJECT_ID": "2025-263F", "EPOCH": "2025-12-10T22:00:03.000096", "MEAN_MOTION": 15.46484102, "ECCENTRICITY": 0.00013047, "INCLINATION": 43.0005, "RA_OF_ASC_NODE": 135.8283, "ARG_OF_PERICENTER": 288.5393, "MEAN_ANOMALY": 247.8845, "EPHEMERIS_TYPE": 0, "CLASSIFICATION_TYPE": "U", "NORAD_CAT_ID": 66490, "ELEMENT_SET_NO": 999, "REV_AT_EPOCH": 534, "BSTAR": -0.043707008, "MEAN_MOTION_DOT": -0.01983336, "MEAN_MOTION_DDOT": 0}, "tle": {"line1": "1 66490U 25263F   25344.91670139 -.01983336  00000+0 -43707-1 0  9993", "line2": "2 66490  43.0005 135.8283 0001304 288.5393 247.8845 15.46484102  5340"}}, "geometry": {"type": "Point", "coordinates": [-104.33437609877448, 38.31079172303551]}}, {"type": "Feature", "properties": {"norad_id": 66491, "name": "STARLINK-35663", "group": "last-30-days", "lat": 30.603428804913435, "lon": -85.800327615231, "alt_km": 411.02406179603895, "timestamp": "2025-12-11T07:02:22.476831+00:00", "meta": {"OBJECT_NAME": "STARLINK-35663", "OBJECT_ID": "2025-263G", "EPOCH": "2025-12-10T22:00:03.000096", "MEAN_MOTION": 15.50601514, "ECCENTRICITY": 0.00014752, "INCLINATION": 43.0006, "RA_OF_ASC_NODE": 135.8026, "ARG_OF_PERICENTER": 267.605, "MEAN_ANOMALY": 279.2387, "EPHEMERIS_TYPE": 0, "CLASSIFICATION_TYPE": "U", "NORAD_CAT_ID": 66491, "ELEMENT_SET_NO": 999, "REV_AT_EPOCH": 534, "BSTAR": -0.0013035928, "MEAN_MOTION_DOT": -0.00076139, "MEAN_MOTION_DDOT": 0}, "tle": {"line1": "1 66491U 25263G   25344.91670139 -.00076139  00000+0 -13036-2 0  9990", "line2": "2 66491  43.0006 135.8026 0001475 267.6050 279.2387 15.50601514  5347"}}, "geometry": {"type": "Point", "coordinates": [-85.800327615231, 30.603428804913435]}}, {"type": "Feature", "properties": {"norad_id": 66492, "name": "STARLINK-35673", "group": "last-30-days", "lat": 42.643339085380006, "lon": -127.53303298505462, "alt_km": 437.78323421742607, "timestamp": "2025-12-11T07:02:22.476841+00:00", "meta": {"OBJECT_NAME": "STARLINK-35673", "OBJECT_ID": "2025-263H", "EPOCH": "2025-12-10T22:00:03.000096", "MEAN_MOTION": 15.42651874, "ECCENTRICITY": 0.00014305, "INCLINATION": 43.0005, "RA_OF_ASC_NODE": 135.8589, "ARG_OF_PERICENTER": 276.4858, "MEAN_ANOMALY": 247.0696, "EPHEMERIS_TYPE": 0, "CLASSIFICATION_TYPE": "U", "NORAD_CAT_ID": 66492, "ELEMENT_SET_NO": 999, "REV_AT_EPOCH": 534, "BSTAR": -0.051512528, "MEAN_MOTION_DOT": -0.02041528, "MEAN_MOTION_DDOT": 0}, "tle": {"line1": "1 66492U 25263H   25344.91670139 -.02041528  00000+0 -51513-1 0  9998", "line2": "2 66492  43.0005 135.8589 0001430 276.4858 247.0696 15.42651874  5347"}}, "geometry": {"type": "Point", "coordinates": [-127.53303298505462, 42.643339085380006]}}, {"type": "Feature", "properties": {"norad_id": 66493, "name": "STARLINK-35597", "group": "last-30-days", "lat": 28.526967102258723, "lon": -82.09441288348067, "alt_km": 411.2952481140883, "timestamp": "2025-12-11T07:02:22.476852+00:00", "meta": {"OBJECT_NAME": "STARLINK-35597", "OBJECT_ID": "2025-263J", "EPOCH": "2025-12-10T22:00:03.000096", "MEAN_MOTION": 15.50620252, "ECCENTRICITY": 0.00014245, "INCLINATION": 43.0006, "RA_OF_ASC_NODE": 135.7925, "ARG_OF_PERICENTER": 267.1157, "MEAN_ANOMALY": 283.5549, "EPHEMERIS_TYPE": 0, "CLASSIFICATION_TYPE": "U", "NORAD_CAT_ID": 66493, "ELEMENT_SET_NO": 999, "REV_AT_EPOCH": 534, "BSTAR": -0.0017923063, "MEAN_MOTION_DOT": -0.00104252, "MEAN_MOTION_DDOT": 0}, "tle": {"line1": "1 66493U 25263J   25344.91670139 -.00104252  00000+0 -17923-2 0  9999", "line2": "2 66493  43.0006 135.7925 0001424 267.1157 283.5549 15.50620252  5341"}}, "geometry": {"type": "Point", "coordinates": [-82.09441288348067, 28.526967102258723]}}, {"type": "Feature", "properties": {"norad_id": 66494, "name": "STARLINK-35689", "group": "last-30-days", "lat": 31.598117524707437, "lon": -87.70590039388344, "alt_km": 410.8678523597282, "timestamp": "2025-12-11T07:02:22.476862+00:00", "meta": {"OBJECT_NAME": "STARLINK-35689", "OBJECT_ID": "2025-263K", "EPOCH": "2025-12-10T22:00:03.000096", "MEAN_MOTION": 15.50618921, "ECCENTRICITY": 0.0001394, "INCLINATION": 43.0006, "RA_OF_ASC_NODE": 135.8077, "ARG_OF_PERICENTER": 268.3199, "MEAN_ANOMALY": 276.6016, "EPHEMERIS_TYPE": 0, "CLASSIFICATION_TYPE": "U", "NORAD_CAT_ID": 66494, "ELEMENT_SET_NO": 999, "REV_AT_EPOCH": 534, "BSTAR": -0.0018058351, "MEAN_MOTION_DOT": -0.00105021, "MEAN_MOTION_DDOT": 0}, "tle": {"line1": "1 66494U 25263K   25344.91670139 -.00105021  00000+0 -18058-2 0  9995", "line2": "2 66494  43.0006 135.8077 0001394 268.3199 276.6016 15.50618921  5348"}}, "geometry": {"type": "Point", "coordinates": [-87.70590039388344, 31.598117524707437]}}]}